[{"OBJECT_NAME":"PROBA-1","OBJECT_ID":"2001-049B","EPOCH":"2026-03-09T22:57:25.772256","MEAN_MOTION":15.07031721,"ECCENTRICITY":0.00568356,"INCLINATION":97.9638,"RA_OF_ASC_NODE":74.0417,"ARG_OF_PERICENTER":98.1776,"MEAN_ANOMALY":262.5903,"EPHEMERIS_TYPE":0,"CLASSIFICATION_TYPE":"U","NORAD_CAT_ID":26958,"ELEMENT_SET_NO":999,"REV_AT_EPOCH":32867,"BSTAR":0.00028513173,"MEAN_MOTION_DOT":4.362e-5,"MEAN_MOTION_DDOT":0},{"OBJECT_NAME":"STARLINK-5076","OBJECT_ID":"2023-014L","EPOCH":"2026-03-09T09:36:37.841472","MEAN_MOTION":14.98331588,"ECCENTRICITY":0.0003253,"INCLINATION":69.9994,"RA_OF_ASC_NODE":65.1236,"ARG_OF_PERICENTER":266.6274,"MEAN_ANOMALY":93.4513,"EPHEMERIS_TYPE":0,"CLASSIFICATION_TYPE":"U","NORAD_CAT_ID":55401,"ELEMENT_SET_NO":999,"REV_AT_EPOCH":17201,"BSTAR":7.071e-7,"MEAN_MOTION_DOT":-8.5e-7,"MEAN_MOTION_DDOT":0}]
